CCSDS_OMM_VERS = 2.0
CREATION_DATE  = 
ORIGINATOR     = 

OBJECT_NAME    = H-2A R/B
OBJECT_ID      = 2012-025E
CENTER_NAME    = EARTH
REF_FRAME      = TEME
TIME_SYSTEM    = UTC
MEAN_ELEMENT_THEORY = SGP/SGP4

EPOCH          = 2025-11-16T10:59:32.648064
MEAN_MOTION    = 14.94190918
ECCENTRICITY   = .0044794
INCLINATION    = 98.4547
RA_OF_ASC_NODE = 273.6733
ARG_OF_PERICENTER = 324.6598
MEAN_ANOMALY   = 35.1653

EPHEMERIS_TYPE = 0
CLASSIFICATION_TYPE = U
NORAD_CAT_ID   = 38341
ELEMENT_SET_NO = 999
REV_AT_EPOCH   = 73130
BSTAR          = .54704E-3
MEAN_MOTION_DOT = .591E-4
MEAN_MOTION_DDOT = 0

CCSDS_OMM_VERS = 2.0
CREATION_DATE  = 
ORIGINATOR     = 

OBJECT_NAME    = SHIJIAN-16 (SJ-16)
OBJECT_ID      = 2013-057A
CENTER_NAME    = EARTH
REF_FRAME      = TEME
TIME_SYSTEM    = UTC
MEAN_ELEMENT_THEORY = SGP/SGP4

EPOCH          = 2025-11-16T12:24:25.339680
MEAN_MOTION    = 14.91871742
ECCENTRICITY   = .0016561
INCLINATION    = 74.9749
RA_OF_ASC_NODE = 39.2655
ARG_OF_PERICENTER = 23.0585
MEAN_ANOMALY   = 337.1342

EPHEMERIS_TYPE = 0
CLASSIFICATION_TYPE = U
NORAD_CAT_ID   = 39358
ELEMENT_SET_NO = 999
REV_AT_EPOCH   = 65462
BSTAR          = .31756E-3
MEAN_MOTION_DOT = .3189E-4
MEAN_MOTION_DDOT = 0

CCSDS_OMM_VERS = 2.0
CREATION_DATE  = 
ORIGINATOR     = 

OBJECT_NAME    = SL-4 R/B
OBJECT_ID      = 2014-021B
CENTER_NAME    = EARTH
REF_FRAME      = TEME
TIME_SYSTEM    = UTC
MEAN_ELEMENT_THEORY = SGP/SGP4

EPOCH          = 2025-11-15T14:50:31.774848
MEAN_MOTION    = 15.35719845
ECCENTRICITY   = .0103762
INCLINATION    = 51.6058
RA_OF_ASC_NODE = 172.3074
ARG_OF_PERICENTER = 48.6828
MEAN_ANOMALY   = 312.3028

EPHEMERIS_TYPE = 0
CLASSIFICATION_TYPE = U
NORAD_CAT_ID   = 39679
ELEMENT_SET_NO = 999
REV_AT_EPOCH   = 63872
BSTAR          = .41964E-3
MEAN_MOTION_DOT = .17309E-3
MEAN_MOTION_DDOT = 0

CCSDS_OMM_VERS = 2.0
CREATION_DATE  = 
ORIGINATOR     = 

OBJECT_NAME    = ALOS-2
OBJECT_ID      = 2014-029A
CENTER_NAME    = EARTH
REF_FRAME      = TEME
TIME_SYSTEM    = UTC
MEAN_ELEMENT_THEORY = SGP/SGP4

EPOCH          = 2025-11-16T13:39:32.446656
MEAN_MOTION    = 14.79467596
ECCENTRICITY   = .0001459
INCLINATION    = 97.9237
RA_OF_ASC_NODE = 55.7870
ARG_OF_PERICENTER = 99.5807
MEAN_ANOMALY   = 260.5570

EPHEMERIS_TYPE = 0
CLASSIFICATION_TYPE = U
NORAD_CAT_ID   = 39766
ELEMENT_SET_NO = 999
REV_AT_EPOCH   = 62014
BSTAR          = .43129E-3
MEAN_MOTION_DOT = .3171E-4
MEAN_MOTION_DDOT = 0

CCSDS_OMM_VERS = 2.0
CREATION_DATE  = 
ORIGINATOR     = 

OBJECT_NAME    = YAOGAN-29
OBJECT_ID      = 2015-069A
CENTER_NAME    = EARTH
REF_FRAME      = TEME
TIME_SYSTEM    = UTC
MEAN_ELEMENT_THEORY = SGP/SGP4

EPOCH          = 2025-11-16T12:04:27.649056
MEAN_MOTION    = 14.82841608
ECCENTRICITY   = .0001957
INCLINATION    = 98.0247
RA_OF_ASC_NODE = 343.5872
ARG_OF_PERICENTER = 41.2718
MEAN_ANOMALY   = 318.8643

EPHEMERIS_TYPE = 0
CLASSIFICATION_TYPE = U
NORAD_CAT_ID   = 41038
ELEMENT_SET_NO = 999
REV_AT_EPOCH   = 53910
BSTAR          = .12788E-3
MEAN_MOTION_DOT = .981E-5
MEAN_MOTION_DDOT = 0

CCSDS_OMM_VERS = 2.0
CREATION_DATE  = 
ORIGINATOR     = 

OBJECT_NAME    = ASTRO-H (HITOMI)
OBJECT_ID      = 2016-012A
CENTER_NAME    = EARTH
REF_FRAME      = TEME
TIME_SYSTEM    = UTC
MEAN_ELEMENT_THEORY = SGP/SGP4

EPOCH          = 2025-11-16T12:00:05.780160
MEAN_MOTION    = 15.09127127
ECCENTRICITY   = .0009885
INCLINATION    = 31.0012
RA_OF_ASC_NODE = 6.4992
ARG_OF_PERICENTER = 273.5164
MEAN_ANOMALY   = 86.4343

EPHEMERIS_TYPE = 0
CLASSIFICATION_TYPE = U
NORAD_CAT_ID   = 41337
ELEMENT_SET_NO = 999
REV_AT_EPOCH   = 53511
BSTAR          = .29694E-3
MEAN_MOTION_DOT = .4926E-4
MEAN_MOTION_DDOT = 0

CCSDS_OMM_VERS = 2.0
CREATION_DATE  = 
ORIGINATOR     = 

OBJECT_NAME    = HXMT (HUIYAN)
OBJECT_ID      = 2017-034A
CENTER_NAME    = EARTH
REF_FRAME      = TEME
TIME_SYSTEM    = UTC
MEAN_ELEMENT_THEORY = SGP/SGP4

EPOCH          = 2025-11-16T08:54:55.764000
MEAN_MOTION    = 15.15865434
ECCENTRICITY   = .003397
INCLINATION    = 43.0144
RA_OF_ASC_NODE = 285.9121
ARG_OF_PERICENTER = 239.7639
MEAN_ANOMALY   = 119.9844

EPHEMERIS_TYPE = 0
CLASSIFICATION_TYPE = U
NORAD_CAT_ID   = 42758
ELEMENT_SET_NO = 999
REV_AT_EPOCH   = 46533
BSTAR          = .58836E-3
MEAN_MOTION_DOT = .11409E-3
MEAN_MOTION_DDOT = 0

CCSDS_OMM_VERS = 2.0
CREATION_DATE  = 
ORIGINATOR     = 

OBJECT_NAME    = CZ-2C R/B
OBJECT_ID      = 2018-054D
CENTER_NAME    = EARTH
REF_FRAME      = TEME
TIME_SYSTEM    = UTC
MEAN_ELEMENT_THEORY = SGP/SGP4

EPOCH          = 2025-11-15T11:21:13.405248
MEAN_MOTION    = 15.68206449
ECCENTRICITY   = .0023753
INCLINATION    = 35.1363
RA_OF_ASC_NODE = 4.9515
ARG_OF_PERICENTER = 236.2570
MEAN_ANOMALY   = 123.5897

EPHEMERIS_TYPE = 0
CLASSIFICATION_TYPE = U
NORAD_CAT_ID   = 43521
ELEMENT_SET_NO = 999
REV_AT_EPOCH   = 41076
BSTAR          = .783E-3
MEAN_MOTION_DOT = .9306E-3
MEAN_MOTION_DDOT = 0

CCSDS_OMM_VERS = 2.0
CREATION_DATE  = 
ORIGINATOR     = 

OBJECT_NAME    = SAOCOM 1A
OBJECT_ID      = 2018-076A
CENTER_NAME    = EARTH
REF_FRAME      = TEME
TIME_SYSTEM    = UTC
MEAN_ELEMENT_THEORY = SGP/SGP4

EPOCH          = 2025-11-16T11:28:01.633152
MEAN_MOTION    = 14.82172351
ECCENTRICITY   = .0001389
INCLINATION    = 97.8861
RA_OF_ASC_NODE = 145.2811
ARG_OF_PERICENTER = 90.4004
MEAN_ANOMALY   = 269.7368

EPHEMERIS_TYPE = 0
CLASSIFICATION_TYPE = U
NORAD_CAT_ID   = 43641
ELEMENT_SET_NO = 999
REV_AT_EPOCH   = 38459
BSTAR          = .13191E-3
MEAN_MOTION_DOT = .998E-5
MEAN_MOTION_DDOT = 0

CCSDS_OMM_VERS = 2.0
CREATION_DATE  = 
ORIGINATOR     = 

OBJECT_NAME    = H-2A R/B
OBJECT_ID      = 2018-084L
CENTER_NAME    = EARTH
REF_FRAME      = TEME
TIME_SYSTEM    = UTC
MEAN_ELEMENT_THEORY = SGP/SGP4

EPOCH          = 2025-11-16T10:50:09.070368
MEAN_MOTION    = 15.36144722
ECCENTRICITY   = .0029103
INCLINATION    = 98.8792
RA_OF_ASC_NODE = 149.1097
ARG_OF_PERICENTER = 55.6839
MEAN_ANOMALY   = 304.7148

EPHEMERIS_TYPE = 0
CLASSIFICATION_TYPE = U
NORAD_CAT_ID   = 43682
ELEMENT_SET_NO = 999
REV_AT_EPOCH   = 38836
BSTAR          = .74191E-3
MEAN_MOTION_DOT = .26451E-3
MEAN_MOTION_DDOT = 0

CCSDS_OMM_VERS = 2.0
CREATION_DATE  = 
ORIGINATOR     = 

OBJECT_NAME    = SAOCOM 1B
OBJECT_ID      = 2020-059A
CENTER_NAME    = EARTH
REF_FRAME      = TEME
TIME_SYSTEM    = UTC
MEAN_ELEMENT_THEORY = SGP/SGP4

EPOCH          = 2025-11-15T20:00:52.795296
MEAN_MOTION    = 14.82178150
ECCENTRICITY   = .0001466
INCLINATION    = 97.8851
RA_OF_ASC_NODE = 143.7487
ARG_OF_PERICENTER = 86.3754
MEAN_ANOMALY   = 273.7626

EPHEMERIS_TYPE = 0
CLASSIFICATION_TYPE = U
NORAD_CAT_ID   = 46265
ELEMENT_SET_NO = 999
REV_AT_EPOCH   = 28188
BSTAR          = .13904E-3
MEAN_MOTION_DOT = .1055E-4
MEAN_MOTION_DDOT = 0

CCSDS_OMM_VERS = 2.0
CREATION_DATE  = 
ORIGINATOR     = 

OBJECT_NAME    = CSS (TIANHE)
OBJECT_ID      = 2021-035A
CENTER_NAME    = EARTH
REF_FRAME      = TEME
TIME_SYSTEM    = UTC
MEAN_ELEMENT_THEORY = SGP/SGP4

EPOCH          = 2025-11-16T07:38:43.971072
MEAN_MOTION    = 15.59141599
ECCENTRICITY   = .0006596
INCLINATION    = 41.4652
RA_OF_ASC_NODE = 177.0260
ARG_OF_PERICENTER = 172.0762
MEAN_ANOMALY   = 188.0182

EPHEMERIS_TYPE = 0
CLASSIFICATION_TYPE = U
NORAD_CAT_ID   = 48274
ELEMENT_SET_NO = 999
REV_AT_EPOCH   = 25990
BSTAR          = .29615E-3
MEAN_MOTION_DOT = .23595E-3
MEAN_MOTION_DDOT = 0

