H-2A R/B                
1 38341U 12025E   25320.45801676  .00005910  00000+0  54704-3 0  9995
2 38341  98.4547 273.6733 0044794 324.6598  35.1653 14.94190918731307
SHIJIAN-16 (SJ-16)      
1 39358U 13057A   25320.51695995  .00003189  00000+0  31756-3 0  9990
2 39358  74.9749  39.2655 0016561  23.0585 337.1342 14.91871742654622
SL-4 R/B                
1 39679U 14021B   25319.61842332  .00017309  00000+0  41964-3 0  9997
2 39679  51.6058 172.3074 0103762  48.6828 312.3028 15.35719845638723
ALOS-2                  
1 39766U 14029A   25320.56912554  .00003171  00000+0  43129-3 0  9999
2 39766  97.9237  55.7870 0001459  99.5807 260.5570 14.79467596620145
YAOGAN-29               
1 41038U 15069A   25320.50309779  .00000981  00000+0  12788-3 0  9995
2 41038  98.0247 343.5872 0001957  41.2718 318.8643 14.82841608539108
ASTRO-H (HITOMI)        
1 41337U 16012A   25320.50006690  .00004926  00000+0  29694-3 0  9999
2 41337  31.0012   6.4992 0009885 273.5164  86.4343 15.09127127535113
HXMT (HUIYAN)           
1 42758U 17034A   25320.37147875  .00011409  00000+0  58836-3 0  9992
2 42758  43.0144 285.9121 0033970 239.7639 119.9844 15.15865434465332
CZ-2C R/B               
1 43521U 18054D   25319.47307182  .00093060  00000+0  78300-3 0  9993
2 43521  35.1363   4.9515 0023753 236.2570 123.5897 15.68206449410765
SAOCOM 1A               
1 43641U 18076A   25320.47779668  .00000998  00000+0  13191-3 0  9999
2 43641  97.8861 145.2811 0001389  90.4004 269.7368 14.82172351384593
H-2A R/B                
1 43682U 18084L   25320.45149387  .00026451  00000+0  74191-3 0  9999
2 43682  98.8792 149.1097 0029103  55.6839 304.7148 15.36144722388360
SAOCOM 1B               
1 46265U 20059A   25319.83394439  .00001055  00000+0  13904-3 0  9992
2 46265  97.8851 143.7487 0001466  86.3754 273.7626 14.82178150281884
CSS (TIANHE)            
1 48274U 21035A   25320.31856448  .00023595  00000+0  29615-3 0  9996
2 48274  41.4652 177.0260 0006596 172.0762 188.0182 15.59141599259905
